OBJECT_NAME,OBJECT_ID,EPOCH,MEAN_MOTION,ECCENTRICITY,INCLINATION,RA_OF_ASC_NODE,ARG_OF_PERICENTER,MEAN_ANOMALY,EPHEMERIS_TYPE,CLASSIFICATION_TYPE,NORAD_CAT_ID,ELEMENT_SET_NO,REV_AT_EPOCH,BSTAR,MEAN_MOTION_DOT,MEAN_MOTION_DDOT
SAUDISAT 5A,2018-102A,2026-07-12T21:33:32.431392,15.28307094,.0010625,97.3059,254.9855,50.9993,309.2191,0,U,43831,999,41960,.12784E-3,.3456E-4,0
SAUDISAT 5B,2018-102C,2026-07-12T20:20:20.906016,15.28550776,.0011407,97.3167,258.0519,52.5887,307.6389,0,U,43833,999,41971,.12122E-3,.3298E-4,0
GAOFEN-10R,2019-066A,2026-07-12T20:38:14.812224,14.83054165,.0006964,98.0514,147.6274,59.0626,301.1271,0,U,44622,999,36618,.77848E-4,.579E-5,0
CARTOSAT-3,2019-081A,2026-07-12T20:15:18.320256,15.19311961,.0013222,97.4299,255.2961,68.5429,291.7214,0,U,44804,999,36736,.9363E-4,.1912E-4,0
GAOFEN-12 01,2019-082A,2026-07-12T19:55:57.887904,14.80478497,.0001083,97.8107,199.5338,53.5815,306.5497,0,U,44819,999,35788,.31181E-4,.188E-5,0
CSG-1,2019-092A,2026-07-12T20:10:10.084800,14.82155577,.0001484,97.8893,17.0721,89.9902,270.1481,0,U,44873,999,35527,.30193E-4,.188E-5,0
NEMO-HD,2020-061F,2026-07-12T20:16:37.842816,15.45107507,.0001001,97.1912,255.5448,88.8966,271.2398,0,U,46277,999,32594,.17354E-3,.8124E-4,0
SENTINEL-6A,2020-086A,2026-07-12T18:32:21.054624,12.80930079,.000781,66.0413,81.9128,269.9187,90.0934,0,U,46984,999,26360,-.43482E-5,-.62E-6,0
CAS500-1,2021-022A,2026-07-12T20:47:25.487808,15.20167871,.0004958,97.3875,88.5963,176.1031,184.0244,0,U,47932,999,29466,.19014E-3,.4048E-4,0
GAOFEN-12 02,2021-026A,2026-07-12T21:53:12.100704,14.80315054,.0005685,97.9932,191.9887,138.2114,221.9533,0,U,48079,999,28556,.29359E-4,.171E-5,0
PLEIADES NEO 3,2021-034A,2026-07-12T20:21:02.423808,14.81680302,.0001398,97.8943,268.2454,93.5096,266.6276,0,U,48268,999,28145,.11601E-3,.861E-5,0
PLEIADES NEO 4,2021-073E,2026-07-12T19:32:24.832320,14.81673647,.000131,97.8940,268.2082,92.3488,267.7875,0,U,49070,999,26516,.18285E-4,.92E-6,0
LANDSAT 9,2021-088A,2026-07-12T19:26:57.987168,14.57094607,.0001135,98.2271,263.6763,89.3092,270.8236,0,U,49260,999,25473,.43632E-4,.151E-5,0
CSG-2,2022-008A,2026-07-12T19:21:30.309984,14.82150464,.0001549,97.8892,17.0337,86.5605,273.5786,0,U,51444,999,24038,.88348E-4,.651E-5,0
GAOFEN-12 03,2022-069A,2026-07-12T19:27:56.331360,14.80073229,.0002492,97.8254,81.0324,74.7461,285.4027,0,U,52912,999,21840,.34044E-4,.207E-5,0
SWOT,2022-173A,2026-07-12T20:30:44.464320,14.00172295,.0000284,77.6108,0.6577,78.5966,281.5217,0,U,54754,999,18274,.62439E-4,.9E-6,0
GAOFEN-12 04,2023-123A,2026-07-12T21:32:59.210592,14.79772922,.0003627,97.9103,111.5322,55.1642,304.9910,0,U,57654,999,15643,.7287E-4,.497E-5,0
PARS 1,2024-039Q,2026-07-12T21:08:45.065760,15.46257849,.0010053,97.4830,175.6219,34.3342,325.8555,0,U,59065,999,13261,.16381E-3,.7981E-4,0
RESURS-P 4,2024-061A,2026-07-12T20:43:54.283008,15.32271921,.0003214,97.2758,141.3189,92.8635,267.2975,0,U,59371,999,12769,.60677E-4,.1815E-4,0
LEGION 1,2024-081A,2026-07-12T19:46:52.597632,15.16835153,.0007679,97.5015,271.4091,279.4111,80.6254,0,U,59625,999,12142,.12185E-3,.233E-4,0
LEGION 2,2024-081B,2026-07-12T18:55:35.128128,15.16813682,.001009,97.5015,271.4707,242.8369,117.1836,0,U,59626,999,12142,.10765E-3,.205E-4,0
ALOS-4 (DAICHI-4),2024-123A,2026-07-12T17:22:11.205120,14.79477360,.0001592,97.9221,290.5332,97.7402,262.3991,0,U,60182,999,10965,.10387E-3,.724E-5,0
LEGION 3,2024-146A,2026-07-12T15:13:19.111008,15.15646217,.0008436,45.0011,254.1157,320.1785,39.8474,0,U,60452,999,10588,.11666E-3,.1993E-4,0
LEGION 4,2024-146B,2026-07-12T19:57:44.732736,15.15670910,.0008933,45.0029,344.9236,98.7680,261.4210,0,U,60453,999,10476,.14839E-3,.2609E-4,0
SENTINEL-2C,2024-157A,2026-07-12T18:24:25.350912,14.30815246,.0000949,98.5685,268.1861,101.0716,259.0574,0,U,60989,999,9664,.30292E-4,.36E-6,0
IONOSFERA-M 1,2024-199A,2026-07-12T19:01:02.349984,14.22758800,.0002189,98.7139,66.6903,76.0084,284.1337,0,U,61735,999,13134,.33767E-4,.32E-6,0
IONOSFERA-M 2,2024-199B,2026-07-12T19:50:20.171904,14.22762191,.0000408,98.7138,66.6346,116.7027,243.4192,0,U,61736,999,13447,.32177E-4,.28E-6,0
PRSC-EO1,2025-012A,2026-07-12T20:08:39.879744,15.17603761,.0006568,97.4222,265.7965,153.1693,206.9882,0,U,62725,999,8208,.21156E-3,.4188E-4,0
BIOMASS,2025-090A,2026-07-12T12:52:22.823328,14.67535769,.00014066,98.0753,20.4797,95.8539,264.2826,0,U,63772,999,6440,.10096591E-3,.525E-5,0
GOSAT-GW (IBUKI GW),2025-141A,2026-07-12T19:49:59.066976,14.67555543,.0001431,98.0565,130.7269,85.0547,275.0821,0,U,64694,999,5560,.78586E-4,.398E-5,0
IONOSFERA-M 3,2025-155A,2026-07-12T20:48:53.406720,14.21490616,.0002226,98.6038,155.1278,116.0624,244.0783,0,U,64876,999,5005,.23333E-4,.8E-7,0
