SAUDISAT 5A             
1 43831U 18102A   26193.89829203  .00003456  00000+0  12784-3 0  9995
2 43831  97.3059 254.9855 0010625  50.9993 309.2191 15.28307094419605
SAUDISAT 5B             
1 43833U 18102C   26193.84746419  .00003298  00000+0  12122-3 0  9999
2 43833  97.3167 258.0519 0011407  52.5887 307.6389 15.28550776419718
GAOFEN-10R              
1 44622U 19066A   26193.85989366  .00000579  00000+0  77848-4 0  9993
2 44622  98.0514 147.6274 0006964  59.0626 301.1271 14.83054165366187
CARTOSAT-3              
1 44804U 19081A   26193.84396204  .00001912  00000+0  93630-4 0  9993
2 44804  97.4299 255.2961 0013222  68.5429 291.7214 15.19311961367364
GAOFEN-12 01            
1 44819U 19082A   26193.83053111  .00000188  00000+0  31181-4 0  9993
2 44819  97.8107 199.5338 0001083  53.5815 306.5497 14.80478497357884
CSG-1                   
1 44873U 19092A   26193.84039450  .00000188  00000+0  30193-4 0  9997
2 44873  97.8893  17.0721 0001484  89.9902 270.1481 14.82155577355274
NEMO-HD                 
1 46277U 20061F   26193.84488244  .00008124  00000+0  17354-3 0  9995
2 46277  97.1912 255.5448 0001001  88.8966 271.2398 15.45107507325947
SENTINEL-6A             
1 46984U 20086A   26193.77246591 -.00000062  00000+0 -43482-5 0  9994
2 46984  66.0413  81.9128 0007810 269.9187  90.0934 12.80930079263601
CAS500-1                
1 47932U 21022A   26193.86626722  .00004048  00000+0  19014-3 0  9995
2 47932  97.3875  88.5963 0004958 176.1031 184.0244 15.20167871294668
GAOFEN-12 02            
1 48079U 21026A   26193.91194561  .00000171  00000+0  29359-4 0  9996
2 48079  97.9932 191.9887 0005685 138.2114 221.9533 14.80315054285568
PLEIADES NEO 3          
1 48268U 21034A   26193.84794472  .00000861  00000+0  11601-3 0  9990
2 48268  97.8943 268.2454 0001398  93.5096 266.6276 14.81680302281452
PLEIADES NEO 4          
1 49070U 21073E   26193.81417630  .00000092  00000+0  18285-4 0  9992
2 49070  97.8940 268.2082 0001310  92.3488 267.7875 14.81673647265165
LANDSAT 9               
1 49260U 21088A   26193.81039337  .00000151  00000+0  43632-4 0  9993
2 49260  98.2271 263.6763 0001135  89.3092 270.8236 14.57094607254738
CSG-2                   
1 51444U 22008A   26193.80660081  .00000651  00000+0  88348-4 0  9996
2 51444  97.8892  17.0337 0001549  86.5605 273.5786 14.82150464240383
GAOFEN-12 03            
1 52912U 22069A   26193.81106865  .00000207  00000+0  34044-4 0  9991
2 52912  97.8254  81.0324 0002492  74.7461 285.4027 14.80073229218409
SWOT                    
1 54754U 22173A   26193.85468130  .00000090  00000+0  62439-4 0  9992
2 54754  77.6108   0.6577 0000284  78.5966 281.5217 14.00172295182745
GAOFEN-12 04            
1 57654U 23123A   26193.89790753  .00000497  00000+0  72870-4 0  9994
2 57654  97.9103 111.5322 0003627  55.1642 304.9910 14.79772922156439
PARS 1                  
1 59065U 24039Q   26193.88107715  .00007981  00000+0  16381-3 0  9997
2 59065  97.4830 175.6219 0010053  34.3342 325.8555 15.46257849132614
RESURS-P 4              
1 59371U 24061A   26193.86382272  .00001815  00000+0  60677-4 0  9991
2 59371  97.2758 141.3189 0003214  92.8635 267.2975 15.32271921127691
LEGION 1                
1 59625U 24081A   26193.82421988  .00002330  00000+0  12185-3 0  9992
2 59625  97.5015 271.4091 0007679 279.4111  80.6254 15.16835153121427
LEGION 2                
1 59626U 24081B   26193.78860102  .00002050  00000+0  10765-3 0  9994
2 59626  97.5015 271.4707 0010090 242.8369 117.1836 15.16813682121427
ALOS-4 (DAICHI-4)       
1 60182U 24123A   26193.72374080  .00000724  00000+0  10387-3 0  9995
2 60182  97.9221 290.5332 0001592  97.7402 262.3991 14.79477360109650
LEGION 3                
1 60452U 24146A   26193.63424897  .00001993  00000+0  11666-3 0  9992
2 60452  45.0011 254.1157 0008436 320.1785  39.8474 15.15646217105887
LEGION 4                
1 60453U 24146B   26193.83176774  .00002609  00000+0  14839-3 0  9993
2 60453  45.0029 344.9236 0008933  98.7680 261.4210 15.15670910104761
SENTINEL-2C             
1 60989U 24157A   26193.76696008  .00000036  00000+0  30292-4 0  9992
2 60989  98.5685 268.1861 0000949 101.0716 259.0574 14.30815246 96646
IONOSFERA-M 1           
1 61735U 24199A   26193.79238831  .00000032  00000+0  33767-4 0  9993
2 61735  98.7139  66.6903 0002189  76.0084 284.1337 14.22758800131343
IONOSFERA-M 2           
1 61736U 24199B   26193.82662236  .00000028  00000+0  32177-4 0  9997
2 61736  98.7138  66.6346 0000408 116.7027 243.4192 14.22762191134477
PRSC-EO1                
1 62725U 25012A   26193.83935046  .00004188  00000+0  21156-3 0  9999
2 62725  97.4222 265.7965 0006568 153.1693 206.9882 15.17603761 82083
BIOMASS                 
1 63772U 25090A   26193.53637527  .00000525  00000+0  10097-3 0  9991
2 63772  98.0753  20.4797 0001406  95.8539 264.2826 14.67535769 64405
GOSAT-GW (IBUKI GW)     
1 64694U 25141A   26193.82637809  .00000398  00000+0  78586-4 0  9993
2 64694  98.0565 130.7269 0001431  85.0547 275.0821 14.67555543 55606
IONOSFERA-M 3           
1 64876U 25155A   26193.86728480  .00000008  00000+0  23333-4 0  9998
2 64876  98.6038 155.1278 0002226 116.0624 244.0783 14.21490616 50050
